{
  "type": "FeatureCollection",
  "features": [
    {
      "type": "Feature",
      "properties": {
        "norad_id": 67109,
        "name": "STARLINK-35764",
        "group": "last-30-days",
        "lat": -13.083041877251972,
        "lon": -131.1043274893206,
        "alt_km": 314.1611400637594,
        "timestamp": "2025-12-24T16:52:40.182716+00:00",
        "meta_object_name": "STARLINK-35764",
        "meta_object_id": "2025-299H",
        "meta_epoch": "2025-12-24T06:00:02.000160",
        "meta_mean_motion": 15.87754941,
        "meta_eccentricity": 0.00018085,
        "meta_inclination": 42.9975,
        "meta_ra_of_asc_node": 246.1376,
        "meta_arg_of_pericenter": 268.0492,
        "meta_mean_anomaly": 0.2956,
        "meta_ephemeris_type": 0,
        "meta_classification_type": "U",
        "meta_norad_cat_id": 67109,
        "meta_element_set_no": 999,
        "meta_rev_at_epoch": 255,
        "meta_bstar": -0.0072553561,
        "meta_mean_motion_dot": -0.01745251,
        "meta_mean_motion_ddot": 0,
        "tle_line1": "1 67109U 25299H   25358.25002315 -.01745251  00000+0 -72554-2 0  9992",
        "tle_line2": "2 67109  42.9975 246.1376 0001808 268.0492   0.2956 15.87754941  2553"
      },
      "geometry": {
        "type": "Point",
        "coordinates": [
          -131.1043274893206,
          -13.083041877251972
        ]
      }
    },
    {
      "type": "Feature",
      "properties": {
        "norad_id": 67110,
        "name": "STARLINK-35781",
        "group": "last-30-days",
        "lat": -10.72441399661273,
        "lon": -128.39830757500104,
        "alt_km": 314.04615210389966,
        "timestamp": "2025-12-24T16:52:40.182729+00:00",
        "meta_object_name": "STARLINK-35781",
        "meta_object_id": "2025-299J",
        "meta_epoch": "2025-12-24T06:00:02.000160",
        "meta_mean_motion": 15.8777123,
        "meta_eccentricity": 0.00017791,
        "meta_inclination": 42.9975,
        "meta_ra_of_asc_node": 246.1286,
        "meta_arg_of_pericenter": 265.9388,
        "meta_mean_anomaly": 5.9399,
        "meta_ephemeris_type": 0,
        "meta_classification_type": "U",
        "meta_norad_cat_id": 67110,
        "meta_element_set_no": 999,
        "meta_rev_at_epoch": 261,
        "meta_bstar": -0.0072873245,
        "meta_mean_motion_dot": -0.01753068,
        "meta_mean_motion_ddot": 0,
        "tle_line1": "1 67110U 25299J   25358.25002315 -.01753068  00000+0 -72873-2 0  9993",
        "tle_line2": "2 67110  42.9975 246.1286 0001779 265.9388   5.9399 15.87771230  2612"
      },
      "geometry": {
        "type": "Point",
        "coordinates": [
          -128.39830757500104,
          -10.72441399661273
        ]
      }
    },
    {
      "type": "Feature",
      "properties": {
        "norad_id": 67111,
        "name": "STARLINK-35875",
        "group": "last-30-days",
        "lat": -11.869936100625265,
        "lon": -129.7026427894091,
        "alt_km": 314.0612082602438,
        "timestamp": "2025-12-24T16:52:40.182739+00:00",
        "meta_object_name": "STARLINK-35875",
        "meta_object_id": "2025-299K",
        "meta_epoch": "2025-12-24T06:00:02.000160",
        "meta_mean_motion": 15.87759629,
        "meta_eccentricity": 0.00018258,
        "meta_inclination": 42.9976,
        "meta_ra_of_asc_node": 246.1332,
        "meta_arg_of_pericenter": 268.6171,
        "meta_mean_anomaly": 1.5568,
        "meta_ephemeris_type": 0,
        "meta_classification_type": "U",
        "meta_norad_cat_id": 67111,
        "meta_element_set_no": 999,
        "meta_rev_at_epoch": 255,
        "meta_bstar": -0.0072763448,
        "meta_mean_motion_dot": -0.01749968,
        "meta_mean_motion_ddot": 0,
        "tle_line1": "1 67111U 25299K   25358.25002315 -.01749968  00000+0 -72763-2 0  9996",
        "tle_line2": "2 67111  42.9976 246.1332 0001825 268.6171   1.5568 15.87759629  2559"
      },
      "geometry": {
        "type": "Point",
        "coordinates": [
          -129.7026427894091,
          -11.869936100625265
        ]
      }
    },
    {
      "type": "Feature",
      "properties": {
        "norad_id": 67112,
        "name": "STARLINK-35906",
        "group": "last-30-days",
        "lat": -9.752910707089313,
        "lon": -127.304089945262,
        "alt_km": 313.88897225454457,
        "timestamp": "2025-12-24T16:52:40.182753+00:00",
        "meta_object_name": "STARLINK-35906",
        "meta_object_id": "2025-299L",
        "meta_epoch": "2025-12-24T06:00:02.000160",
        "meta_mean_motion": 15.87778531,
        "meta_eccentricity": 0.00018103,
        "meta_inclination": 42.9975,
        "meta_ra_of_asc_node": 246.1253,
        "meta_arg_of_pericenter": 267.6483,
        "meta_mean_anomaly": 5.6676,
        "meta_ephemeris_type": 0,
        "meta_classification_type": "U",
        "meta_norad_cat_id": 67112,
        "meta_element_set_no": 999,
        "meta_rev_at_epoch": 255,
        "meta_bstar": -0.007265499,
        "meta_mean_motion_dot": -0.01749141,
        "meta_mean_motion_ddot": 0,
        "tle_line1": "1 67112U 25299L   25358.25002315 -.01749141  00000+0 -72655-2 0  9990",
        "tle_line2": "2 67112  42.9975 246.1253 0001810 267.6483   5.6676 15.87778531  2558"
      },
      "geometry": {
        "type": "Point",
        "coordinates": [
          -127.304089945262,
          -9.752910707089313
        ]
      }
    },
    {
      "type": "Feature",
      "properties": {
        "norad_id": 67113,
        "name": "STARLINK-35789",
        "group": "last-30-days",
        "lat": -8.709906716903495,
        "lon": -126.14141267546741,
        "alt_km": 313.90272326440027,
        "timestamp": "2025-12-24T16:52:40.182768+00:00",
        "meta_object_name": "STARLINK-35789",
        "meta_object_id": "2025-299M",
        "meta_epoch": "2025-12-24T06:00:02.000160",
        "meta_mean_motion": 15.87792278,
        "meta_eccentricity": 0.00017484,
        "meta_inclination": 42.9975,
        "meta_ra_of_asc_node": 246.1211,
        "meta_arg_of_pericenter": 263.8906,
        "meta_mean_anomaly": 10.96,
        "meta_ephemeris_type": 0,
        "meta_classification_type": "U",
        "meta_norad_cat_id": 67113,
        "meta_element_set_no": 999,
        "meta_rev_at_epoch": 255,
        "meta_bstar": -0.0072750884,
        "meta_mean_motion_dot": -0.01752103,
        "meta_mean_motion_ddot": 0,
        "tle_line1": "1 67113U 25299M   25358.25002315 -.01752103  00000+0 -72751-2 0  9990",
        "tle_line2": "2 67113  42.9975 246.1211 0001748 263.8906  10.9600 15.87792278  2551"
      },
      "geometry": {
        "type": "Point",
        "coordinates": [
          -126.14141267546741,
          -8.709906716903495
        ]
      }
    },
    {
      "type": "Feature",
      "properties": {
        "norad_id": 67114,
        "name": "STARLINK-36180",
        "group": "last-30-days",
        "lat": -7.485782650501969,
        "lon": -124.7893008449717,
        "alt_km": 313.70967006303454,
        "timestamp": "2025-12-24T16:52:40.182778+00:00",
        "meta_object_name": "STARLINK-36180",
        "meta_object_id": "2025-299N",
        "meta_epoch": "2025-12-24T06:00:02.000160",
        "meta_mean_motion": 15.87795685,
        "meta_eccentricity": 0.00017353,
        "meta_inclination": 42.9976,
        "meta_ra_of_asc_node": 246.1168,
        "meta_arg_of_pericenter": 267.0202,
        "meta_mean_anomaly": 9.6428,
        "meta_ephemeris_type": 0,
        "meta_classification_type": "U",
        "meta_norad_cat_id": 67114,
        "meta_element_set_no": 999,
        "meta_rev_at_epoch": 266,
        "meta_bstar": -0.0072748259,
        "meta_mean_motion_dot": -0.01752293,
        "meta_mean_motion_ddot": 0,
        "tle_line1": "1 67114U 25299N   25358.25002315 -.01752293  00000+0 -72748-2 0  9997",
        "tle_line2": "2 67114  42.9976 246.1168 0001735 267.0202   9.6428 15.87795685  2665"
      },
      "geometry": {
        "type": "Point",
        "coordinates": [
          -124.7893008449717,
          -7.485782650501969
        ]
      }
    },
    {
      "type": "Feature",
      "properties": {
        "norad_id": 67115,
        "name": "STARLINK-35892",
        "group": "last-30-days",
        "lat": -6.4197491501200314,
        "lon": -123.6219782225816,
        "alt_km": 313.64146506540965,
        "timestamp": "2025-12-24T16:52:40.182789+00:00",
        "meta_object_name": "STARLINK-35892",
        "meta_object_id": "2025-299P",
        "meta_epoch": "2025-12-24T06:00:02.000160",
        "meta_mean_motion": 15.87808404,
        "meta_eccentricity": 0.00018033,
        "meta_inclination": 42.9976,
        "meta_ra_of_asc_node": 246.1129,
        "meta_arg_of_pericenter": 265.3393,
        "meta_mean_anomaly": 12.882,
        "meta_ephemeris_type": 0,
        "meta_classification_type": "U",
        "meta_norad_cat_id": 67115,
        "meta_element_set_no": 999,
        "meta_rev_at_epoch": 255,
        "meta_bstar": -0.0072832526,
        "meta_mean_motion_dot": -0.0175508,
        "meta_mean_motion_ddot": 0,
        "tle_line1": "1 67115U 25299P   25358.25002315 -.01755080  00000+0 -72833-2 0  9990",
        "tle_line2": "2 67115  42.9976 246.1129 0001803 265.3393  12.8820 15.87808404  2555"
      },
      "geometry": {
        "type": "Point",
        "coordinates": [
          -123.6219782225816,
          -6.4197491501200314
        ]
      }
    }
  ]
}